[{"OBJECT_NAME":"STARLINK-31642","OBJECT_ID":"2024-088U","EPOCH":"2026-03-09T11:06:32.364576","MEAN_MOTION":15.30187317,"ECCENTRICITY":0.0001211,"INCLINATION":53.1608,"RA_OF_ASC_NODE":141.2302,"ARG_OF_PERICENTER":92.3922,"MEAN_ANOMALY":267.7217,"EPHEMERIS_TYPE":0,"CLASSIFICATION_TYPE":"U","NORAD_CAT_ID":59726,"ELEMENT_SET_NO":999,"REV_AT_EPOCH":10364,"BSTAR":2.3217733e-5,"MEAN_MOTION_DOT":3.28e-6,"MEAN_MOTION_DDOT":0},{"OBJECT_NAME":"NUSHSAT1","OBJECT_ID":"2025-052B","EPOCH":"2026-03-09T15:31:41.225952","MEAN_MOTION":15.31903202,"ECCENTRICITY":0.0005501,"INCLINATION":97.4095,"RA_OF_ASC_NODE":325.7239,"ARG_OF_PERICENTER":84.7512,"MEAN_ANOMALY":275.4357,"EPHEMERIS_TYPE":0,"CLASSIFICATION_TYPE":"U","NORAD_CAT_ID":63211,"ELEMENT_SET_NO":999,"REV_AT_EPOCH":5488,"BSTAR":0.00074857,"MEAN_MOTION_DOT":0.00023034,"MEAN_MOTION_DDOT":0}]
